{
  "type": "FeatureCollection",
  "features": [
    {
      "type": "Feature",
      "properties": {
        "norad_id": 66842,
        "name": "STARLINK-35769",
        "group": "last-30-days",
        "lat": 21.563203874225565,
        "lon": 175.94946998571803,
        "alt_km": 408.8236021166049,
        "timestamp": "2025-12-23T22:42:31.701807+00:00",
        "meta_object_name": "STARLINK-35769",
        "meta_object_id": "2025-280X",
        "meta_epoch": "2025-12-23T04:03:18.874080",
        "meta_mean_motion": 15.52551768,
        "meta_eccentricity": 0.00032337,
        "meta_inclination": 70.0005,
        "meta_ra_of_asc_node": 169.8021,
        "meta_arg_of_pericenter": 275.986,
        "meta_mean_anomaly": 84.0958,
        "meta_ephemeris_type": 0,
        "meta_classification_type": "U",
        "meta_norad_cat_id": 66842,
        "meta_element_set_no": 999,
        "meta_rev_at_epoch": 455,
        "meta_bstar": 0.0016152262,
        "meta_mean_motion_dot": 0.00100586,
        "meta_mean_motion_ddot": 0,
        "tle_line1": "1 66842U 25280X   25357.16896845  .00100586  00000+0  16152-2 0  9998",
        "tle_line2": "2 66842  70.0005 169.8021 0003233 275.9860  84.0958 15.52551768  4558"
      },
      "geometry": {
        "type": "Point",
        "coordinates": [
          175.94946998571803,
          21.563203874225565
        ]
      }
    },
    {
      "type": "Feature",
      "properties": {
        "norad_id": 66843,
        "name": "STARLINK-35997",
        "group": "last-30-days",
        "lat": 25.129944988563285,
        "lon": 177.50548940167295,
        "alt_km": 408.467082215725,
        "timestamp": "2025-12-23T22:42:31.701817+00:00",
        "meta_object_name": "STARLINK-35997",
        "meta_object_id": "2025-280Y",
        "meta_epoch": "2025-12-23T04:02:19.421376",
        "meta_mean_motion": 15.52570929,
        "meta_eccentricity": 0.00032312,
        "meta_inclination": 70.0005,
        "meta_ra_of_asc_node": 169.7986,
        "meta_arg_of_pericenter": 275.4901,
        "meta_mean_anomaly": 84.5917,
        "meta_ephemeris_type": 0,
        "meta_classification_type": "U",
        "meta_norad_cat_id": 66843,
        "meta_element_set_no": 999,
        "meta_rev_at_epoch": 455,
        "meta_bstar": 0.0011859062,
        "meta_mean_motion_dot": 0.00073606,
        "meta_mean_motion_ddot": 0,
        "tle_line1": "1 66843U 25280Y   25357.16828034  .00073606  00000+0  11859-2 0  9995",
        "tle_line2": "2 66843  70.0005 169.7986 0003231 275.4901  84.5917 15.52570929  4557"
      },
      "geometry": {
        "type": "Point",
        "coordinates": [
          177.50548940167295,
          25.129944988563285
        ]
      }
    },
    {
      "type": "Feature",
      "properties": {
        "norad_id": 66844,
        "name": "STARLINK-36073",
        "group": "last-30-days",
        "lat": 23.357637256241944,
        "lon": 176.72059397925221,
        "alt_km": 408.69846149463865,
        "timestamp": "2025-12-23T22:42:31.701832+00:00",
        "meta_object_name": "STARLINK-36073",
        "meta_object_id": "2025-280Z",
        "meta_epoch": "2025-12-23T04:02:49.237152",
        "meta_mean_motion": 15.525542,
        "meta_eccentricity": 0.00032328,
        "meta_inclination": 70.0003,
        "meta_ra_of_asc_node": 169.7999,
        "meta_arg_of_pericenter": 272.7149,
        "meta_mean_anomaly": 87.3668,
        "meta_ephemeris_type": 0,
        "meta_classification_type": "U",
        "meta_norad_cat_id": 66844,
        "meta_element_set_no": 999,
        "meta_rev_at_epoch": 452,
        "meta_bstar": 0.0016713278,
        "meta_mean_motion_dot": 0.00104142,
        "meta_mean_motion_ddot": 0,
        "tle_line1": "1 66844U 25280Z   25357.16862543  .00104142  00000+0  16713-2 0  9993",
        "tle_line2": "2 66844  70.0003 169.7999 0003232 272.7149  87.3668 15.52554200  4520"
      },
      "geometry": {
        "type": "Point",
        "coordinates": [
          176.72059397925221,
          23.357637256241944
        ]
      }
    },
    {
      "type": "Feature",
      "properties": {
        "norad_id": 66845,
        "name": "STARLINK-36068",
        "group": "last-30-days",
        "lat": 30.44869203551302,
        "lon": -179.97512727653782,
        "alt_km": 407.4251737009581,
        "timestamp": "2025-12-23T22:42:31.701842+00:00",
        "meta_object_name": "STARLINK-36068",
        "meta_object_id": "2025-280AA",
        "meta_epoch": "2025-12-23T02:28:04.118880",
        "meta_mean_motion": 15.52545165,
        "meta_eccentricity": 0.00031388,
        "meta_inclination": 70.0007,
        "meta_ra_of_asc_node": 169.9714,
        "meta_arg_of_pericenter": 283.1913,
        "meta_mean_anomaly": 76.8924,
        "meta_ephemeris_type": 0,
        "meta_classification_type": "U",
        "meta_norad_cat_id": 66845,
        "meta_element_set_no": 999,
        "meta_rev_at_epoch": 454,
        "meta_bstar": 0.0016658485,
        "meta_mean_motion_dot": 0.0010376,
        "meta_mean_motion_ddot": 0,
        "tle_line1": "1 66845U 25280AA  25357.10282545  .00103760  00000+0  16658-2 0  9999",
        "tle_line2": "2 66845  70.0007 169.9714 0003138 283.1913  76.8924 15.52545165  4542"
      },
      "geometry": {
        "type": "Point",
        "coordinates": [
          -179.97512727653782,
          30.44869203551302
        ]
      }
    },
    {
      "type": "Feature",
      "properties": {
        "norad_id": 66846,
        "name": "STARLINK-36055",
        "group": "last-30-days",
        "lat": 26.85077072267424,
        "lon": 178.2915344763867,
        "alt_km": 408.44052107849257,
        "timestamp": "2025-12-23T22:42:31.701853+00:00",
        "meta_object_name": "STARLINK-36055",
        "meta_object_id": "2025-280AB",
        "meta_epoch": "2025-12-23T04:01:49.789632",
        "meta_mean_motion": 15.52561321,
        "meta_eccentricity": 0.00032088,
        "meta_inclination": 70.0004,
        "meta_ra_of_asc_node": 169.7971,
        "meta_arg_of_pericenter": 272.3842,
        "meta_mean_anomaly": 87.6978,
        "meta_ephemeris_type": 0,
        "meta_classification_type": "U",
        "meta_norad_cat_id": 66846,
        "meta_element_set_no": 999,
        "meta_rev_at_epoch": 455,
        "meta_bstar": 0.00097011604,
        "meta_mean_motion_dot": 0.00060058,
        "meta_mean_motion_ddot": 0,
        "tle_line1": "1 66846U 25280AB  25357.16793738  .00060058  00000+0  97012-3 0  9993",
        "tle_line2": "2 66846  70.0004 169.7971 0003208 272.3842  87.6978 15.52561321  4554"
      },
      "geometry": {
        "type": "Point",
        "coordinates": [
          178.2915344763867,
          26.85077072267424
        ]
      }
    },
    {
      "type": "Feature",
      "properties": {
        "norad_id": 66847,
        "name": "STARLINK-36061",
        "group": "last-30-days",
        "lat": 28.540167828108014,
        "lon": 179.08880904245686,
        "alt_km": 408.18034755788267,
        "timestamp": "2025-12-23T22:42:31.701863+00:00",
        "meta_object_name": "STARLINK-36061",
        "meta_object_id": "2025-280AC",
        "meta_epoch": "2025-12-23T04:01:20.362656",
        "meta_mean_motion": 15.52521471,
        "meta_eccentricity": 0.00030999,
        "meta_inclination": 70.0006,
        "meta_ra_of_asc_node": 169.7956,
        "meta_arg_of_pericenter": 273.9326,
        "meta_mean_anomaly": 86.1506,
        "meta_ephemeris_type": 0,
        "meta_classification_type": "U",
        "meta_norad_cat_id": 66847,
        "meta_element_set_no": 999,
        "meta_rev_at_epoch": 455,
        "meta_bstar": 0.0012542354,
        "meta_mean_motion_dot": 0.00077758,
        "meta_mean_motion_ddot": 0,
        "tle_line1": "1 66847U 25280AC  25357.16759679  .00077758  00000+0  12542-2 0  9999",
        "tle_line2": "2 66847  70.0006 169.7956 0003099 273.9326  86.1506 15.52521471  4555"
      },
      "geometry": {
        "type": "Point",
        "coordinates": [
          179.08880904245686,
          28.540167828108014
        ]
      }
    },
    {
      "type": "Feature",
      "properties": {
        "norad_id": 66848,
        "name": "STARLINK-36091",
        "group": "last-30-days",
        "lat": 29.95513766899985,
        "lon": -163.99096018552245,
        "alt_km": 383.81314167480195,
        "timestamp": "2025-12-23T22:42:31.701873+00:00",
        "meta_object_name": "STARLINK-36091",
        "meta_object_id": "2025-281A",
        "meta_epoch": "2025-12-23T06:00:00.999648",
        "meta_mean_motion": 15.62915334,
        "meta_eccentricity": 8.274e-05,
        "meta_inclination": 43.0005,
        "meta_ra_of_asc_node": 58.3515,
        "meta_arg_of_pericenter": 278.0862,
        "meta_mean_anomaly": 256.6827,
        "meta_ephemeris_type": 0,
        "meta_classification_type": "U",
        "meta_norad_cat_id": 66848,
        "meta_element_set_no": 999,
        "meta_rev_at_epoch": 307,
        "meta_bstar": -0.023975658,
        "meta_mean_motion_dot": -0.01964319,
        "meta_mean_motion_ddot": 0,
        "tle_line1": "1 66848U 25281A   25357.25001157 -.01964319  00000+0 -23976-1 0  9995",
        "tle_line2": "2 66848  43.0005  58.3515 0000827 278.0862 256.6827 15.62915334  3078"
      },
      "geometry": {
        "type": "Point",
        "coordinates": [
          -163.99096018552245,
          29.95513766899985
        ]
      }
    }
  ]
}